{
    "links": {
        "self": "http://www.neowsapp.com/rest/v1/neo/3519520?api_key=iIulBulltgU6a56xZRHN4H3l9WmuAYTsLGpBGhQ2"
    },
    "id": "3519520",
    "neo_reference_id": "3519520",
    "name": "(2010 JM1)",
    "designation": "2010 JM1",
    "nasa_jpl_url": "http://ssd.jpl.nasa.gov/sbdb.cgi?sstr=3519520",
    "absolute_magnitude_h": 26.0,
    "estimated_diameter": {
        "kilometers": {
            "estimated_diameter_min": 0.0167708462,
            "estimated_diameter_max": 0.0375007522
        },
        "meters": {
            "estimated_diameter_min": 16.7708462163,
            "estimated_diameter_max": 37.5007521798
        },
        "miles": {
            "estimated_diameter_min": 0.0104209175,
            "estimated_diameter_max": 0.0233018799
        },
        "feet": {
            "estimated_diameter_min": 55.0224631002,
            "estimated_diameter_max": 123.0339677816
        }
    },
    "is_potentially_hazardous_asteroid": false,
    "close_approach_data": [
        {
            "close_approach_date": "2010-05-06",
            "close_approach_date_full": "2010-May-06 23:00",
            "epoch_date_close_approach": 1273186800000,
            "relative_velocity": {
                "kilometers_per_second": "6.400065045",
                "kilometers_per_hour": "23040.2341618572",
                "miles_per_hour": "14316.3054990718"
            },
            "miss_distance": {
                "astronomical": "0.0332231342",
                "lunar": "12.9237992038",
                "kilometers": "4970110.111044154",
                "miles": "3088283.2174071652"
            },
            "orbiting_body": "Earth"
        },
        {
            "close_approach_date": "2056-03-17",
            "close_approach_date_full": "2056-Mar-17 22:29",
            "epoch_date_close_approach": 2720557740000,
            "relative_velocity": {
                "kilometers_per_second": "15.8622827913",
                "kilometers_per_hour": "57104.2180485925",
                "miles_per_hour": "35482.3403758046"
            },
            "miss_distance": {
                "astronomical": "0.3724070855",
                "lunar": "144.8663562595",
                "kilometers": "55711306.763707885",
                "miles": "34617400.792763413"
            },
            "orbiting_body": "Earth"
        },
        {
            "close_approach_date": "2102-03-14",
            "close_approach_date_full": "2102-Mar-14 16:05",
            "epoch_date_close_approach": 4171795500000,
            "relative_velocity": {
                "kilometers_per_second": "18.5268025038",
                "kilometers_per_hour": "66696.4890138125",
                "miles_per_hour": "41442.6045208325"
            },
            "miss_distance": {
                "astronomical": "0.4589655555",
                "lunar": "178.5376010895",
                "kilometers": "68660269.506166785",
                "miles": "42663513.137740233"
            },
            "orbiting_body": "Earth"
        }
    ],
    "orbital_data": {
        "orbit_id": "9",
        "orbit_determination_date": "2017-04-06 08:57:38",
        "first_observation_date": "2010-05-05",
        "last_observation_date": "2010-05-09",
        "data_arc_in_days": 4,
        "observations_used": 39,
        "orbit_uncertainty": "7",
        "minimum_orbit_intersection": ".031618",
        "jupiter_tisserand_invariant": "4.039",
        "epoch_osculation": "2459000.5",
        "eccentricity": ".4036612246755437",
        "semi_major_axis": "1.741252075564624",
        "inclination": "6.920938399612402",
        "ascending_node_longitude": "46.96964653828704",
        "orbital_period": "839.2491257894849",
        "perihelion_distance": "1.038376130273375",
        "perihelion_argument": "171.7656097100135",
        "aphelion_distance": "2.444128020855872",
        "perihelion_time": "2458675.306278410788",
        "mean_anomaly": "139.4934307044865",
        "mean_motion": ".4289548704162743",
        "equinox": "J2000",
        "orbit_class": {
            "orbit_class_type": "AMO",
            "orbit_class_description": "Near-Earth asteroid orbits similar to that of 1221 Amor",
            "orbit_class_range": "1.017 AU < q (perihelion) < 1.3 AU"
        }
    },
    "is_sentry_object": false
}